ORBCOMM FM16            
1 25417U 98046E   26063.12187079  .00001787  00000+0  60913-3 0  9992
2 25417  44.9948  17.6067 0002919 190.9325 169.1461 14.39816229441705
ORBCOMM FM15            
1 25418U 98046F   26060.94344064  .00000411  00000+0  17640-3 0  9991
2 25418  44.9980  33.9056 0002671 186.0202 174.0615 14.39427017441378
ORBCOMM FM14            
1 25419U 98046G   26063.04093705  .00001821  00000+0  61933-3 0  9999
2 25419  44.9967  21.3543 0001465 204.5904 155.4876 14.39875793441652
ORBCOMM FM13            
1 25420U 98046H   26063.11869010  .00001602  00000+0  56652-3 0  9998
2 25420  44.9983  31.6686 0003105 158.5016 201.5963 14.38431735440651
ORBCOMM FM21            
1 25475U 98053A   26063.19298419  .00001246  00000+0  45468-3 0  9990
2 25475  45.0072 117.5963 0001033 222.2157 137.8612 14.38001645434666
ORBCOMM FM22            
1 25476U 98053B   26063.16461620  .00001473  00000+0  51634-3 0  9998
2 25476  45.0064 110.3082 0001065 126.6573 233.4374 14.39224650434713
ORBCOMM FM23            
1 25477U 98053C   26063.15393766  .00001363  00000+0  49041-3 0  9990
2 25477  45.0073 119.4645 0000604 152.7352 207.3528 14.38261807434818
ORBCOMM FM24            
1 25478U 98053D   26063.12190137  .00001452  00000+0  51288-3 0  9990
2 25478  45.0070 115.8836 0000788 184.2598 175.8244 14.38907661434878
ORBCOMM FM25            
1 25479U 98053E   26062.54332309  .00001359  00000+0  48317-3 0  9990
2 25479  45.0061 116.9432 0002797 132.9374 227.1710 14.38869101435086
ORBCOMM FM26            
1 25480U 98053F   26063.15190945  .00001201  00000+0  44160-3 0  9996
2 25480  45.0061 112.4998 0005089 146.1974 213.9199 14.37807641435057
ORBCOMM FM27            
1 25481U 98053G   26063.14965140  .00001520  00000+0  53458-3 0  9997
2 25481  45.0047 114.1633 0001744 242.7491 117.3180 14.38914923435104
ORBCOMM FM28            
1 25482U 98053H   26063.02189007  .00001344  00000+0  47715-3 0  9998
2 25482  45.0059  51.9763 0003599 194.2529 165.8218 14.39011136435771
ORBCOMM FM30            
1 25980U 99065A   26063.04286890  .00001106  00000+0  40927-3 0  9999
2 25980  45.0317 299.1129 0005750 236.0613 123.9689 14.37968318371848
ORBCOMM FM31            
1 25981U 99065B   26063.02871851  .00001122  00000+0  41499-3 0  9998
2 25981  45.0228 292.6220 0003509 267.0739  92.9708 14.37891417371395
ORBCOMM FM32            
1 25982U 99065C   26063.10718391  .00001220  00000+0  45561-3 0  9990
2 25982  45.0162 310.5601 0005776 261.4164  98.6029 14.36953558371971
ORBCOMM FM33            
1 25983U 99065D   26062.70791125  .00001359  00000+0  46492-3 0  9999
2 25983  45.0274 204.4016 0008264 280.7785  79.2135 14.40770710373488
ORBCOMM FM36            
1 25984U 99065E   26063.07470679  .00001518  00000+0  53337-3 0  9992
2 25984  45.0392 298.5050 0002298 156.9355 203.1597 14.38965862371849
