[{"OBJECT_NAME":"ORBCOMM FM16","OBJECT_ID":"1998-046E","EPOCH":"2026-03-04T02:55:29.636256","MEAN_MOTION":14.39816229,"ECCENTRICITY":0.0002919,"INCLINATION":44.9948,"RA_OF_ASC_NODE":17.6067,"ARG_OF_PERICENTER":190.9325,"MEAN_ANOMALY":169.1461,"EPHEMERIS_TYPE":0,"CLASSIFICATION_TYPE":"U","NORAD_CAT_ID":25417,"ELEMENT_SET_NO":999,"REV_AT_EPOCH":44170,"BSTAR":0.00060913,"MEAN_MOTION_DOT":1.787e-5,"MEAN_MOTION_DDOT":0},{"OBJECT_NAME":"ORBCOMM FM15","OBJECT_ID":"1998-046F","EPOCH":"2026-03-01T22:38:33.271296","MEAN_MOTION":14.39427017,"ECCENTRICITY":0.0002671,"INCLINATION":44.998,"RA_OF_ASC_NODE":33.9056,"ARG_OF_PERICENTER":186.0202,"MEAN_ANOMALY":174.0615,"EPHEMERIS_TYPE":0,"CLASSIFICATION_TYPE":"U","NORAD_CAT_ID":25418,"ELEMENT_SET_NO":999,"REV_AT_EPOCH":44137,"BSTAR":0.0001764,"MEAN_MOTION_DOT":4.11e-6,"MEAN_MOTION_DDOT":0},{"OBJECT_NAME":"ORBCOMM FM14","OBJECT_ID":"1998-046G","EPOCH":"2026-03-04T00:58:56.961120","MEAN_MOTION":14.39875793,"ECCENTRICITY":0.0001465,"INCLINATION":44.9967,"RA_OF_ASC_NODE":21.3543,"ARG_OF_PERICENTER":204.5904,"MEAN_ANOMALY":155.4876,"EPHEMERIS_TYPE":0,"CLASSIFICATION_TYPE":"U","NORAD_CAT_ID":25419,"ELEMENT_SET_NO":999,"REV_AT_EPOCH":44165,"BSTAR":0.00061933,"MEAN_MOTION_DOT":1.821e-5,"MEAN_MOTION_DDOT":0},{"OBJECT_NAME":"ORBCOMM FM13","OBJECT_ID":"1998-046H","EPOCH":"2026-03-04T02:50:54.824640","MEAN_MOTION":14.38431735,"ECCENTRICITY":0.0003105,"INCLINATION":44.9983,"RA_OF_ASC_NODE":31.6686,"ARG_OF_PERICENTER":158.5016,"MEAN_ANOMALY":201.5963,"EPHEMERIS_TYPE":0,"CLASSIFICATION_TYPE":"U","NORAD_CAT_ID":25420,"ELEMENT_SET_NO":999,"REV_AT_EPOCH":44065,"BSTAR":0.00056652,"MEAN_MOTION_DOT":1.602e-5,"MEAN_MOTION_DDOT":0},{"OBJECT_NAME":"ORBCOMM FM21","OBJECT_ID":"1998-053A","EPOCH":"2026-03-04T04:37:53.834016","MEAN_MOTION":14.38001645,"ECCENTRICITY":0.0001033,"INCLINATION":45.0072,"RA_OF_ASC_NODE":117.5963,"ARG_OF_PERICENTER":222.2157,"MEAN_ANOMALY":137.8612,"EPHEMERIS_TYPE":0,"CLASSIFICATION_TYPE":"U","NORAD_CAT_ID":25475,"ELEMENT_SET_NO":999,"REV_AT_EPOCH":43466,"BSTAR":0.00045468,"MEAN_MOTION_DOT":1.246e-5,"MEAN_MOTION_DDOT":0},{"OBJECT_NAME":"ORBCOMM FM22","OBJECT_ID":"1998-053B","EPOCH":"2026-03-04T03:57:02.839680","MEAN_MOTION":14.3922465,"ECCENTRICITY":0.0001065,"INCLINATION":45.0064,"RA_OF_ASC_NODE":110.3082,"ARG_OF_PERICENTER":126.6573,"MEAN_ANOMALY":233.4374,"EPHEMERIS_TYPE":0,"CLASSIFICATION_TYPE":"U","NORAD_CAT_ID":25476,"ELEMENT_SET_NO":999,"REV_AT_EPOCH":43471,"BSTAR":0.00051634,"MEAN_MOTION_DOT":1.473e-5,"MEAN_MOTION_DDOT":0},{"OBJECT_NAME":"ORBCOMM FM23","OBJECT_ID":"1998-053C","EPOCH":"2026-03-04T03:41:40.213824","MEAN_MOTION":14.38261807,"ECCENTRICITY":6.04e-5,"INCLINATION":45.0073,"RA_OF_ASC_NODE":119.4645,"ARG_OF_PERICENTER":152.7352,"MEAN_ANOMALY":207.3528,"EPHEMERIS_TYPE":0,"CLASSIFICATION_TYPE":"U","NORAD_CAT_ID":25477,"ELEMENT_SET_NO":999,"REV_AT_EPOCH":43481,"BSTAR":0.00049041,"MEAN_MOTION_DOT":1.363e-5,"MEAN_MOTION_DDOT":0},{"OBJECT_NAME":"ORBCOMM FM24","OBJECT_ID":"1998-053D","EPOCH":"2026-03-04T02:55:32.278368","MEAN_MOTION":14.38907661,"ECCENTRICITY":7.88e-5,"INCLINATION":45.007,"RA_OF_ASC_NODE":115.8836,"ARG_OF_PERICENTER":184.2598,"MEAN_ANOMALY":175.8244,"EPHEMERIS_TYPE":0,"CLASSIFICATION_TYPE":"U","NORAD_CAT_ID":25478,"ELEMENT_SET_NO":999,"REV_AT_EPOCH":43487,"BSTAR":0.00051288,"MEAN_MOTION_DOT":1.452e-5,"MEAN_MOTION_DDOT":0},{"OBJECT_NAME":"ORBCOMM FM25","OBJECT_ID":"1998-053E","EPOCH":"2026-03-03T13:02:23.114976","MEAN_MOTION":14.38869101,"ECCENTRICITY":0.0002797,"INCLINATION":45.0061,"RA_OF_ASC_NODE":116.9432,"ARG_OF_PERICENTER":132.9374,"MEAN_ANOMALY":227.171,"EPHEMERIS_TYPE":0,"CLASSIFICATION_TYPE":"U","NORAD_CAT_ID":25479,"ELEMENT_SET_NO":999,"REV_AT_EPOCH":43508,"BSTAR":0.00048317,"MEAN_MOTION_DOT":1.359e-5,"MEAN_MOTION_DDOT":0},{"OBJECT_NAME":"ORBCOMM FM26","OBJECT_ID":"1998-053F","EPOCH":"2026-03-04T03:38:44.976480","MEAN_MOTION":14.37807641,"ECCENTRICITY":0.0005089,"INCLINATION":45.0061,"RA_OF_ASC_NODE":112.4998,"ARG_OF_PERICENTER":146.1974,"MEAN_ANOMALY":213.9199,"EPHEMERIS_TYPE":0,"CLASSIFICATION_TYPE":"U","NORAD_CAT_ID":25480,"ELEMENT_SET_NO":999,"REV_AT_EPOCH":43505,"BSTAR":0.0004416,"MEAN_MOTION_DOT":1.201e-5,"MEAN_MOTION_DDOT":0},{"OBJECT_NAME":"ORBCOMM FM27","OBJECT_ID":"1998-053G","EPOCH":"2026-03-04T03:35:29.880960","MEAN_MOTION":14.38914923,"ECCENTRICITY":0.0001744,"INCLINATION":45.0047,"RA_OF_ASC_NODE":114.1633,"ARG_OF_PERICENTER":242.7491,"MEAN_ANOMALY":117.318,"EPHEMERIS_TYPE":0,"CLASSIFICATION_TYPE":"U","NORAD_CAT_ID":25481,"ELEMENT_SET_NO":999,"REV_AT_EPOCH":43510,"BSTAR":0.00053458,"MEAN_MOTION_DOT":1.52e-5,"MEAN_MOTION_DDOT":0},{"OBJECT_NAME":"ORBCOMM FM28","OBJECT_ID":"1998-053H","EPOCH":"2026-03-04T00:31:31.302048","MEAN_MOTION":14.39011136,"ECCENTRICITY":0.0003599,"INCLINATION":45.0059,"RA_OF_ASC_NODE":51.9763,"ARG_OF_PERICENTER":194.2529,"MEAN_ANOMALY":165.8218,"EPHEMERIS_TYPE":0,"CLASSIFICATION_TYPE":"U","NORAD_CAT_ID":25482,"ELEMENT_SET_NO":999,"REV_AT_EPOCH":43577,"BSTAR":0.00047715,"MEAN_MOTION_DOT":1.344e-5,"MEAN_MOTION_DDOT":0},{"OBJECT_NAME":"ORBCOMM FM30","OBJECT_ID":"1999-065A","EPOCH":"2026-03-04T01:01:43.872960","MEAN_MOTION":14.37968318,"ECCENTRICITY":0.000575,"INCLINATION":45.0317,"RA_OF_ASC_NODE":299.1129,"ARG_OF_PERICENTER":236.0613,"MEAN_ANOMALY":123.9689,"EPHEMERIS_TYPE":0,"CLASSIFICATION_TYPE":"U","NORAD_CAT_ID":25980,"ELEMENT_SET_NO":999,"REV_AT_EPOCH":37184,"BSTAR":0.00040927,"MEAN_MOTION_DOT":1.106e-5,"MEAN_MOTION_DDOT":0},{"OBJECT_NAME":"ORBCOMM FM31","OBJECT_ID":"1999-065B","EPOCH":"2026-03-04T00:41:21.279264","MEAN_MOTION":14.37891417,"ECCENTRICITY":0.0003509,"INCLINATION":45.0228,"RA_OF_ASC_NODE":292.622,"ARG_OF_PERICENTER":267.0739,"MEAN_ANOMALY":92.9708,"EPHEMERIS_TYPE":0,"CLASSIFICATION_TYPE":"U","NORAD_CAT_ID":25981,"ELEMENT_SET_NO":999,"REV_AT_EPOCH":37139,"BSTAR":0.00041499,"MEAN_MOTION_DOT":1.122e-5,"MEAN_MOTION_DDOT":0},{"OBJECT_NAME":"ORBCOMM FM32","OBJECT_ID":"1999-065C","EPOCH":"2026-03-04T02:34:20.689824","MEAN_MOTION":14.36953558,"ECCENTRICITY":0.0005776,"INCLINATION":45.0162,"RA_OF_ASC_NODE":310.5601,"ARG_OF_PERICENTER":261.4164,"MEAN_ANOMALY":98.6029,"EPHEMERIS_TYPE":0,"CLASSIFICATION_TYPE":"U","NORAD_CAT_ID":25982,"ELEMENT_SET_NO":999,"REV_AT_EPOCH":37197,"BSTAR":0.00045561,"MEAN_MOTION_DOT":1.22e-5,"MEAN_MOTION_DDOT":0},{"OBJECT_NAME":"ORBCOMM FM33","OBJECT_ID":"1999-065D","EPOCH":"2026-03-03T16:59:23.532000","MEAN_MOTION":14.4077071,"ECCENTRICITY":0.0008264,"INCLINATION":45.0274,"RA_OF_ASC_NODE":204.4016,"ARG_OF_PERICENTER":280.7785,"MEAN_ANOMALY":79.2135,"EPHEMERIS_TYPE":0,"CLASSIFICATION_TYPE":"U","NORAD_CAT_ID":25983,"ELEMENT_SET_NO":999,"REV_AT_EPOCH":37348,"BSTAR":0.00046492064,"MEAN_MOTION_DOT":1.359e-5,"MEAN_MOTION_DDOT":0},{"OBJECT_NAME":"ORBCOMM FM36","OBJECT_ID":"1999-065E","EPOCH":"2026-03-04T01:47:34.666656","MEAN_MOTION":14.38965862,"ECCENTRICITY":0.0002298,"INCLINATION":45.0392,"RA_OF_ASC_NODE":298.505,"ARG_OF_PERICENTER":156.9355,"MEAN_ANOMALY":203.1597,"EPHEMERIS_TYPE":0,"CLASSIFICATION_TYPE":"U","NORAD_CAT_ID":25984,"ELEMENT_SET_NO":999,"REV_AT_EPOCH":37184,"BSTAR":0.00053337,"MEAN_MOTION_DOT":1.518e-5,"MEAN_MOTION_DDOT":0}]
